{
  "type" : "FeatureCollection",
  "features" : [{"type":"Feature","id":1,"geometry":{"type":"Point","coordinates":[-115.31009999999998,51.077977000000033]},"properties":{"OBJECTID":1,"no":1,"hut":"CANMORE CLUBHOUSE","lat":51.077976999999997,"long":-115.31010000000001,"Image":"https://images.squarespace-cdn.com/content/v1/64b818854e7c4f355cdec1bc/54786d0e-9d92-4f14-8310-0a43595cdb99/Image+%2844%29.jpg?format=750w","URL":null,"Sleeps":"31","Seasons":"4","Members":"30","Non_Members":"40"}},{"type":"Feature","id":2,"geometry":{"type":"Point","coordinates":[-115.31009999999998,51.077977000000033]},"properties":{"OBJECTID":2,"no":2,"hut":"PAT BOSWELL CABIN AT CANMORE CLUBHOUSE","lat":51.077976999999997,"long":-115.31010000000001,"Image":null,"URL":null,"Sleeps":"12","Seasons":"4","Members":"80","Non_Members":"90"}},{"type":"Feature","id":3,"geometry":{"type":"Point","coordinates":[-115.31009999999998,51.077977000000033]},"properties":{"OBJECTID":3,"no":3,"hut":"BELL CABIN AT CANMORE CLUBHOUSE","lat":51.077976999999997,"long":-115.31010000000001,"Image":null,"URL":null,"Sleeps":"15","Seasons":"4","Members":"30","Non_Members":"41"}},{"type":"Feature","id":4,"geometry":{"type":"Point","coordinates":[-116.18279999999999,51.42779500000006]},"properties":{"OBJECTID":4,"no":4,"hut":"HI - LAKE LOUISE ALPINE CENTRE","lat":51.427795000000003,"long":-116.1828,"Image":"https://hihostels.ca/upload/images/hostels/AB/lake-louise/HILakelouise_2025_building-2-exterior.jpg","URL":null,"Sleeps":"NA","Seasons":"4","Members":"variable","Non_Members":"variable"}},{"type":"Feature","id":5,"geometry":{"type":"Point","coordinates":[-116.34333329999998,51.355000000000075]},"properties":{"OBJECTID":5,"no":5,"hut":"ELIZABETH PARKER HUT","lat":51.354999999999997,"long":-116.3433333,"Image":"https://www.alpineclubofcanada.ca/wp-content/uploads/2023/05/1-backcountry-hut.jpg","URL":"https://www.alpineclubofcanada.ca/elizabeth-parker-hut/","Sleeps":"24","Seasons":"4","Members":"30","Non_Members":"40"}},{"type":"Feature","id":6,"geometry":{"type":"Point","coordinates":[-116.56388889999994,51.525833330000069]},"properties":{"OBJECTID":6,"no":6,"hut":"STANLEY MITCHELL HUT","lat":51.525833329999998,"long":-116.56388889999999,"Image":"https://alpineclubofcanada.ca/wp-content/uploads/2024/04/Little-Yoho-Valley-Winter.webp","URL":"https://www.alpineclubofcanada.ca/stanley-mitchell-hut/","Sleeps":"22","Seasons":"4","Members":"30","Non_Members":"40"}},{"type":"Feature","id":7,"geometry":{"type":"Point","coordinates":[-115.07777779999998,50.551666670000031]},"properties":{"OBJECTID":7,"no":7,"hut":"ELK LAKES CABIN","lat":50.551666670000003,"long":-115.07777780000001,"Image":"https://alpineclubofcanada.ca/wp-content/uploads/2024/04/Elk-Lakes-1-768x549.webp","URL":"https://www.alpineclubofcanada.ca/elk-lakes-cabin/","Sleeps":"14","Seasons":"4","Members":"25","Non_Members":"25"}},{"type":"Feature","id":8,"geometry":{"type":"Point","coordinates":[-116.28999999999996,51.363888890000055]},"properties":{"OBJECTID":8,"no":8,"hut":"ABBOT PASS HUT","lat":51.363888889999998,"long":-116.29000000000001,"Image":"https://www.alpineclubofcanada.ca/wp-content/uploads/2023/05/4-Abbot-Pass-tn.webp","URL":"https://www.alpineclubofcanada.ca/abbot-pass-hut/","Sleeps":"24","Seasons":"Summer","Members":"30","Non_Members":"40"}},{"type":"Feature","id":9,"geometry":{"type":"Point","coordinates":[-116.54499999999996,51.663333330000057]},"properties":{"OBJECTID":9,"no":9,"hut":"PETER AND CATHARINE WHYTE (PEYTO) HUT","lat":51.66333333,"long":-116.545,"Image":"https://alpineclubofcanada.ca/wp-content/uploads/2024/03/ACC-Images-256-scaled.webp","URL":"https://www.alpineclubofcanada.ca/peter-and-catharine-whyte-peyto-hut/","Sleeps":"18","Seasons":"4","Members":"30","Non_Members":"40"}},{"type":"Feature","id":10,"geometry":{"type":"Point","coordinates":[-116.48999999999995,51.635000000000048]},"properties":{"OBJECTID":10,"no":10,"hut":"BOW HUT","lat":51.634999999999998,"long":-116.48999999999999,"Image":"https://alpineclubofcanada.ca/wp-content/uploads/2024/04/Bow-Hut-1-768x549.webp","URL":"https://www.alpineclubofcanada.ca/bow-hut/","Sleeps":"30","Seasons":"4","Members":"30","Non_Members":"40"}},{"type":"Feature","id":11,"geometry":{"type":"Point","coordinates":[-116.57437499999997,51.58159900000004]},"properties":{"OBJECTID":11,"no":11,"hut":"LOUISE AND RICHARD GUY HUT","lat":51.581598999999997,"long":-116.574375,"Image":"https://alpineclubofcanada.ca/wp-content/uploads/2024/03/guy-1-768x576.webp","URL":"https://www.alpineclubofcanada.ca/louise-and-richard-guy-hut/","Sleeps":"18","Seasons":"Winter","Members":"30","Non_Members":"40"}},{"type":"Feature","id":12,"geometry":{"type":"Point","coordinates":[-116.45499999999998,51.591666670000052]},"properties":{"OBJECTID":12,"no":12,"hut":"BALFOUR HUT","lat":51.591666670000002,"long":-116.455,"Image":"https://alpineclubofcanada.ca/wp-content/uploads/2024/04/Balfour-5-768x549.webp","URL":"https://www.alpineclubofcanada.ca/rob-ritchie-balfour-hut/","Sleeps":"18","Seasons":"4","Members":"30","Non_Members":"40"}},{"type":"Feature","id":13,"geometry":{"type":"Point","coordinates":[-116.40166669999996,51.528333330000066]},"properties":{"OBJECTID":13,"no":13,"hut":"SCOTT DUNCAN HUT","lat":51.528333330000002,"long":-116.40166670000001,"Image":"https://alpineclubofcanada.ca/wp-content/uploads/2024/04/DALY-JakeFinnan-2-768x576.webp","URL":"https://alpineclubofcanada.ca/hut/scott-duncan-hut/","Sleeps":"12","Seasons":"4","Members":"30","Non_Members":"40"}},{"type":"Feature","id":14,"geometry":{"type":"Point","coordinates":[-117.48999999999995,51.26333333000008]},"properties":{"OBJECTID":14,"no":14,"hut":"A.O. WHEELER HUT","lat":51.263333330000002,"long":-117.48999999999999,"Image":"https://alpineclubofcanada.ca/wp-content/uploads/2024/04/Wheeler-PaulZizka-768x549.webp","URL":"https://alpineclubofcanada.ca/hut/a-o-wheeler-hut/","Sleeps":"30","Seasons":"4","Members":"30","Non_Members":"40"}},{"type":"Feature","id":15,"geometry":{"type":"Point","coordinates":[-117.46333329999999,51.211666670000056]},"properties":{"OBJECTID":15,"no":15,"hut":"ASULKAN CABIN","lat":51.21166667,"long":-117.4633333,"Image":"https://alpineclubofcanada.ca/wp-content/uploads/2024/04/Asulkan-PeteHoang-1-768x576.webp","URL":"https://alpineclubofcanada.ca/hut/asulkan-cabin/","Sleeps":"10","Seasons":"4","Members":"30","Non_Members":"40"}},{"type":"Feature","id":16,"geometry":{"type":"Point","coordinates":[-117.50019999999995,51.209069000000056]},"properties":{"OBJECTID":16,"no":16,"hut":"SAPPHIRE COL HUT","lat":51.209069,"long":-117.50020000000001,"Image":"https://alpineclubofcanada.ca/wp-content/uploads/2024/04/DSC05873-scaled-e1720718581864-768x575.webp","URL":"https://alpineclubofcanada.ca/hut/sapphire-col-hut/","Sleeps":"4","Seasons":"4","Members":"30","Non_Members":"40"}},{"type":"Feature","id":17,"geometry":{"type":"Point","coordinates":[-117.39429999999999,51.172413000000063]},"properties":{"OBJECTID":17,"no":17,"hut":"GLACIER CIRCLE CABIN","lat":51.172412999999999,"long":-117.3943,"Image":"https://alpineclubofcanada.ca/wp-content/uploads/2024/04/Glacier-Circle-e1720720982303-768x576.webp","URL":"https://alpineclubofcanada.ca/hut/glacier-circle-cabin/","Sleeps":"8","Seasons":"4","Members":"30","Non_Members":"40"}},{"type":"Feature","id":18,"geometry":{"type":"Point","coordinates":[-116.18666669999999,51.295000000000073]},"properties":{"OBJECTID":18,"no":18,"hut":"NEIL COLGAN HUT","lat":51.295000000000002,"long":-116.1866667,"Image":"https://alpineclubofcanada.ca/wp-content/uploads/2024/04/Neil-Colgan-1.webp","URL":"https://alpineclubofcanada.ca/hut/castle-mountain-hut/","Sleeps":"18","Seasons":"Summer","Members":"30","Non_Members":"40"}},{"type":"Feature","id":19,"geometry":{"type":"Point","coordinates":[-115.96559999999994,51.327775000000031]},"properties":{"OBJECTID":19,"no":19,"hut":"CASTLE MOUNTAIN HUT","lat":51.327775000000003,"long":-115.96559999999999,"Image":"https://alpineclubofcanada.ca/wp-content/uploads/2024/04/Castle-1.webp","URL":"https://alpineclubofcanada.ca/hut/neil-colgan-hut/","Sleeps":"6","Seasons":"Summer","Members":"30","Non_Members":"40"}},{"type":"Feature","id":20,"geometry":{"type":"Point","coordinates":[-117.87666669999999,51.76333333000008]},"properties":{"OBJECTID":20,"no":20,"hut":"BILL PUTNAM (FAIRY MEADOW) HUT","lat":51.763333330000002,"long":-117.8766667,"Image":"https://alpineclubofcanada.ca/wp-content/uploads/2024/05/P1070036-scaled-e1720721465337-768x577.webp","URL":"https://alpineclubofcanada.ca/hut/bill-putnam-fairy-meadow-hut/","Sleeps":"20","Seasons":"4","Members":"30","Non_Members":"40"}},{"type":"Feature","id":21,"geometry":{"type":"Point","coordinates":[-117.88166669999998,51.690000000000055]},"properties":{"OBJECTID":21,"no":21,"hut":"BEN FERRIS (GREAT CAIRN) HUT","lat":51.689999999999998,"long":-117.8816667,"Image":"https://alpineclubofcanada.ca/wp-content/uploads/2024/04/20130818-_DSC9627-update-768x513.webp","URL":"https://alpineclubofcanada.ca/hut/ben-ferris-great-cairn-hut/","Sleeps":"6","Seasons":"4","Members":"30","Non_Members":"40"}},{"type":"Feature","id":22,"geometry":{"type":"Point","coordinates":[-116.76333329999994,50.738333330000046]},"properties":{"OBJECTID":22,"no":22,"hut":"CONRAD KAIN HUT","lat":50.738333330000003,"long":-116.7633333,"Image":"https://alpineclubofcanada.ca/wp-content/uploads/2024/04/Image-2-768x576.webp","URL":"https://alpineclubofcanada.ca/hut/conrad-kain-hut/","Sleeps":"35","Seasons":"Summer","Members":"25","Non_Members":"25"}},{"type":"Feature","id":23,"geometry":{"type":"Point","coordinates":[-117.19416669999998,49.770833330000073]},"properties":{"OBJECTID":23,"no":23,"hut":"KOKANEE GLACIER CABIN","lat":49.770833330000002,"long":-117.1941667,"Image":"https://alpineclubofcanada.ca/wp-content/uploads/2024/05/Kokanee-21-768x576.webp","URL":"https://alpineclubofcanada.ca/hut/kokanee-glacier-cabin/","Sleeps":"20","Seasons":"4","Members":"25","Non_Members":"25"}},{"type":"Feature","id":24,"geometry":{"type":"Point","coordinates":[-117.09444439999999,49.823333330000025]},"properties":{"OBJECTID":24,"no":24,"hut":"SILVER SPRAY CABIN","lat":49.823333329999997,"long":-117.0944444,"Image":"https://alpineclubofcanada.ca/wp-content/uploads/2024/05/ss_sw_side2-768x576.webp","URL":"https://alpineclubofcanada.ca/hut/silver-spray-cabin/","Sleeps":"10","Seasons":"Summer","Members":"25","Non_Members":"25"}},{"type":"Feature","id":25,"geometry":{"type":"Point","coordinates":[-117.12689999999998,49.80112100000008]},"properties":{"OBJECTID":25,"no":25,"hut":"WOODBURY CABIN","lat":49.801121000000002,"long":-117.12690000000001,"Image":"https://alpineclubofcanada.ca/wp-content/uploads/2024/04/Woodbury-1-768x549.webp","URL":"https://alpineclubofcanada.ca/hut/woodbury-cabin/","Sleeps":"8","Seasons":"Summer","Members":"25","Non_Members":"25"}},{"type":"Feature","id":26,"geometry":{"type":"Point","coordinates":[-117.43833329999995,52.286666670000045]},"properties":{"OBJECTID":26,"no":26,"hut":"LLOYD MACKAY (MT. ALBERTA) HUT","lat":52.286666670000002,"long":-117.4383333,"Image":"https://alpineclubofcanada.ca/wp-content/uploads/2024/04/AlbertaHut-scaled-e1749590949212-768x515.webp","URL":"https://alpineclubofcanada.ca/hut/lloyd-mackay-mt-alberta-hut/","Sleeps":"6","Seasons":"4","Members":"30","Non_Members":"40"}},{"type":"Feature","id":27,"geometry":{"type":"Point","coordinates":[-117.87999999999994,52.505000000000052]},"properties":{"OBJECTID":27,"no":27,"hut":"SYDNEY VALLANCE (FRYATT) HUT","lat":52.505000000000003,"long":-117.88,"Image":"https://alpineclubofcanada.ca/wp-content/uploads/2024/04/fryatt-creek-1-768x549.webp","URL":"https://alpineclubofcanada.ca/hut/sydney-vallance-fryatt-hut/","Sleeps":"12","Seasons":"4","Members":"30","Non_Members":"40"}},{"type":"Feature","id":28,"geometry":{"type":"Point","coordinates":[-118.25666669999998,52.663333330000057]},"properties":{"OBJECTID":28,"no":28,"hut":"WATES-GIBSON HUT","lat":52.66333333,"long":-118.2566667,"Image":"https://alpineclubofcanada.ca/wp-content/uploads/2024/04/ramparts-1-768x576.webp","URL":"https://alpineclubofcanada.ca/hut/wates-gibson-hut/","Sleeps":"26","Seasons":"Not Winter","Members":"30","Non_Members":"40"}},{"type":"Feature","id":29,"geometry":{"type":"Point","coordinates":[-117.99333329999996,52.996666670000081]},"properties":{"OBJECTID":29,"no":29,"hut":"MOUNT COLIN CENTENNIAL HUT","lat":52.996666670000003,"long":-117.9933333,"Image":"https://alpineclubofcanada.ca/wp-content/uploads/2024/05/hut-768x576.webp","URL":"https://alpineclubofcanada.ca/hut/mount-colin-centennial-hut/","Sleeps":"6","Seasons":"Summer","Members":"30","Non_Members":"40"}},{"type":"Feature","id":30,"geometry":{"type":"Point","coordinates":[-114.04419999999999,49.022819000000027]},"properties":{"OBJECTID":30,"no":30,"hut":"CAMERON LAKE CABIN","lat":49.022818999999998,"long":-114.0442,"Image":"https://alpineclubofcanada.ca/wp-content/uploads/2024/04/Cameron-1.webp","URL":"https://alpineclubofcanada.ca/hut/cameron-lake-cabin/","Sleeps":"8","Seasons":"Winter","Members":"30","Non_Members":"40"}},{"type":"Feature","id":31,"geometry":{"type":"Point","coordinates":[-123.31139999999999,49.796817000000033]},"properties":{"OBJECTID":31,"no":31,"hut":"JIM HABERL HUT VANCOUVER SECTION","lat":49.796816999999997,"long":-123.31140000000001,"Image":"https://accvancouver.ca/wp-content/uploads/2024/10/Anna-Milino-Oct-2024-Photo-of-Jim-Haberl-Hut-nbr-10-Edited-scaled.jpg","URL":"https://accvancouver.ca/jim-haberl-hut/","Sleeps":"12","Seasons":"4","Members":"25","Non_Members":"35"}},{"type":"Feature","id":32,"geometry":{"type":"Point","coordinates":[-123.25079999999997,49.785509000000047]},"properties":{"OBJECTID":32,"no":32,"hut":"TANTALUS HUT VANCOUVER SECTION","lat":49.785508999999998,"long":-123.2508,"Image":"https://accvancouver.ca/wp-content/uploads/2019/06/IMG_4236.jpg","URL":"https://accvancouver.ca/tantalus-hut/","Sleeps":"16","Seasons":"Summer","Members":"20","Non_Members":"30"}},{"type":"Feature","id":33,"geometry":{"type":"Point","coordinates":[-122.47249999999997,50.430180000000064]},"properties":{"OBJECTID":33,"no":33,"hut":"WENDY THOMPSON HUT WHISTLER SECTION","lat":50.43018,"long":-122.4725,"Image":null,"URL":"https://accwhistler.ca/WendyThompson.html","Sleeps":"16","Seasons":"4","Members":"15","Non_Members":"20"}},{"type":"Feature","id":34,"geometry":{"type":"Point","coordinates":[-125.28749999999997,49.189166670000077]},"properties":{"OBJECTID":34,"no":34,"hut":"5040 PEAK HUT VANCOUVER ISLAND SECTION","lat":49.189166669999999,"long":-125.28749999999999,"Image":null,"URL":"https://accvi.ca/5040-peak-hut/hut-%20bookings/","Sleeps":"12","Seasons":"4","Members":"20","Non_Members":"25"}},{"type":"Feature","id":35,"geometry":{"type":"Point","coordinates":[-77.192249999999945,44.915447000000029]},"properties":{"OBJECTID":35,"no":35,"hut":"BON ECHO HUT TORONTO SECTION","lat":44.915447,"long":-77.192250000000001,"Image":null,"URL":"https://alpineclubtoronto.ca/bonecho/","Sleeps":"NA","Seasons":"Summer","Members":"20","Non_Members":"40"}},{"type":"Feature","id":36,"geometry":{"type":"Point","coordinates":[-73.769859999999937,44.300370000000044]},"properties":{"OBJECTID":36,"no":36,"hut":"KEENE FARM MONTREAL SECTION","lat":44.300370000000001,"long":-73.769859999999994,"Image":"https://alpineclubmontreal.ca/wp-content/uploads/2019/03/1f1354af559b214e7eb8ad2cc8d5e362.media_.150x112-150x112.jpg.webp","URL":"https://alpineclubmontreal.ca/refuge-et-camping/","Sleeps":"32","Seasons":"4","Members":"20","Non_Members":"30"}},{"type":"Feature","id":37,"geometry":{"type":"Point","coordinates":[-74.675179999999955,46.132528000000036]},"properties":{"OBJECTID":37,"no":37,"hut":"MONTAGNE D'ARGENT HUT LAURENTIAN SECTION","lat":46.132528000000001,"long":-74.675179999999997,"Image":null,"URL":null,"Sleeps":"10","Seasons":"4","Members":"15","Non_Members":"20"}}]
}